{
  "type": "FeatureCollection",
  "features": [
    {
      "type": "Feature",
      "properties": {
        "norad_id": 66575,
        "name": "STARLINK-35810",
        "group": "last-30-days",
        "lat": -9.148413529865563,
        "lon": 7.528600252737172,
        "alt_km": 345.5309280189176,
        "timestamp": "2025-12-03T04:52:28.421458+00:00",
        "meta_object_name": "STARLINK-35810",
        "meta_object_id": "2025-268U",
        "meta_epoch": "2025-12-02T20:00:03.000384",
        "meta_mean_motion": 15.75193846,
        "meta_eccentricity": 0.0001845,
        "meta_inclination": 42.9981,
        "meta_ra_of_asc_node": 179.82,
        "meta_arg_of_pericenter": 280.4636,
        "meta_mean_anomaly": 333.8488,
        "meta_ephemeris_type": 0,
        "meta_classification_type": "U",
        "meta_norad_cat_id": 66575,
        "meta_element_set_no": 999,
        "meta_rev_at_epoch": 307,
        "meta_bstar": -0.0017424,
        "meta_mean_motion_dot": -0.00261778,
        "meta_mean_motion_ddot": 0,
        "tle_line1": "1 66575U 25268U   25336.83336806 -.00261778  00000+0 -17424-2 0  9990",
        "tle_line2": "2 66575  42.9981 179.8200 0001845 280.4636 333.8488 15.75193846  3074"
      },
      "geometry": {
        "type": "Point",
        "coordinates": [
          7.528600252737172,
          -9.148413529865563
        ]
      }
    },
    {
      "type": "Feature",
      "properties": {
        "norad_id": 66576,
        "name": "STARLINK-35814",
        "group": "last-30-days",
        "lat": -10.434234493269642,
        "lon": 8.96987052205782,
        "alt_km": 345.6101547864582,
        "timestamp": "2025-12-03T04:52:28.421469+00:00",
        "meta_object_name": "STARLINK-35814",
        "meta_object_id": "2025-268V",
        "meta_epoch": "2025-12-02T20:00:03.000384",
        "meta_mean_motion": 15.75155372,
        "meta_eccentricity": 0.0001703,
        "meta_inclination": 42.9981,
        "meta_ra_of_asc_node": 179.815,
        "meta_arg_of_pericenter": 279.4688,
        "meta_mean_anomaly": 336.7877,
        "meta_ephemeris_type": 0,
        "meta_classification_type": "U",
        "meta_norad_cat_id": 66576,
        "meta_element_set_no": 999,
        "meta_rev_at_epoch": 307,
        "meta_bstar": -0.0014088,
        "meta_mean_motion_dot": -0.00212616,
        "meta_mean_motion_ddot": 0,
        "tle_line1": "1 66576U 25268V   25336.83336806 -.00212616  00000+0 -14088-2 0  9991",
        "tle_line2": "2 66576  42.9981 179.8150 0001703 279.4688 336.7877 15.75155372  3073"
      },
      "geometry": {
        "type": "Point",
        "coordinates": [
          8.96987052205782,
          -10.434234493269642
        ]
      }
    },
    {
      "type": "Feature",
      "properties": {
        "norad_id": 66577,
        "name": "STARLINK-35815",
        "group": "last-30-days",
        "lat": -11.704888489312303,
        "lon": 10.413436292369514,
        "alt_km": 345.6535309238161,
        "timestamp": "2025-12-03T04:52:28.421479+00:00",
        "meta_object_name": "STARLINK-35815",
        "meta_object_id": "2025-268W",
        "meta_epoch": "2025-12-02T20:00:03.000384",
        "meta_mean_motion": 15.75063269,
        "meta_eccentricity": 0.0001302,
        "meta_inclination": 42.9982,
        "meta_ra_of_asc_node": 179.8102,
        "meta_arg_of_pericenter": 279.1086,
        "meta_mean_anomaly": 339.0967,
        "meta_ephemeris_type": 0,
        "meta_classification_type": "U",
        "meta_norad_cat_id": 66577,
        "meta_element_set_no": 999,
        "meta_rev_at_epoch": 307,
        "meta_bstar": -0.00040439,
        "meta_mean_motion_dot": -0.00062203,
        "meta_mean_motion_ddot": 0,
        "tle_line1": "1 66577U 25268W   25336.83336806 -.00062203  00000+0 -40439-3 0  9997",
        "tle_line2": "2 66577  42.9982 179.8102 0001302 279.1086 339.0967 15.75063269  3075"
      },
      "geometry": {
        "type": "Point",
        "coordinates": [
          10.413436292369514,
          -11.704888489312303
        ]
      }
    },
    {
      "type": "Feature",
      "properties": {
        "norad_id": 66578,
        "name": "STARLINK-35743",
        "group": "last-30-days",
        "lat": -12.97595184608847,
        "lon": 11.879296218296956,
        "alt_km": 345.78465178660645,
        "timestamp": "2025-12-03T04:52:28.421489+00:00",
        "meta_object_name": "STARLINK-35743",
        "meta_object_id": "2025-268X",
        "meta_epoch": "2025-12-02T20:00:03.000384",
        "meta_mean_motion": 15.7506683,
        "meta_eccentricity": 0.000133,
        "meta_inclination": 42.9982,
        "meta_ra_of_asc_node": 179.8054,
        "meta_arg_of_pericenter": 280.0389,
        "meta_mean_anomaly": 340.087,
        "meta_ephemeris_type": 0,
        "meta_classification_type": "U",
        "meta_norad_cat_id": 66578,
        "meta_element_set_no": 999,
        "meta_rev_at_epoch": 307,
        "meta_bstar": -0.00048481,
        "meta_mean_motion_dot": -0.00074383,
        "meta_mean_motion_ddot": 0,
        "tle_line1": "1 66578U 25268X   25336.83336806 -.00074383  00000+0 -48481-3 0  9995",
        "tle_line2": "2 66578  42.9982 179.8054 0001330 280.0389 340.0870 15.75066830  3072"
      },
      "geometry": {
        "type": "Point",
        "coordinates": [
          11.879296218296956,
          -12.97595184608847
        ]
      }
    },
    {
      "type": "Feature",
      "properties": {
        "norad_id": 66579,
        "name": "STARLINK-35868",
        "group": "last-30-days",
        "lat": -14.226368080490387,
        "lon": 13.345529800530818,
        "alt_km": 345.34318783051367,
        "timestamp": "2025-12-03T04:52:28.421499+00:00",
        "meta_object_name": "STARLINK-35868",
        "meta_object_id": "2025-268Y",
        "meta_epoch": "2025-12-02T20:00:03.000384",
        "meta_mean_motion": 15.75002877,
        "meta_eccentricity": 0.0002157,
        "meta_inclination": 42.9981,
        "meta_ra_of_asc_node": 179.8004,
        "meta_arg_of_pericenter": 264.2666,
        "meta_mean_anomaly": 357.7931,
        "meta_ephemeris_type": 0,
        "meta_classification_type": "U",
        "meta_norad_cat_id": 66579,
        "meta_element_set_no": 999,
        "meta_rev_at_epoch": 307,
        "meta_bstar": 0.00029562,
        "meta_mean_motion_dot": 0.00045105,
        "meta_mean_motion_ddot": 0,
        "tle_line1": "1 66579U 25268Y   25336.83336806  .00045105  00000+0  29562-3 0  9993",
        "tle_line2": "2 66579  42.9981 179.8004 0002157 264.2666 357.7931 15.75002877  3071"
      },
      "geometry": {
        "type": "Point",
        "coordinates": [
          13.345529800530818,
          -14.226368080490387
        ]
      }
    },
    {
      "type": "Feature",
      "properties": {
        "norad_id": 66580,
        "name": "STARLINK-35872",
        "group": "last-30-days",
        "lat": -15.479867603775613,
        "lon": 14.843115366060218,
        "alt_km": 345.4921592282981,
        "timestamp": "2025-12-03T04:52:28.421508+00:00",
        "meta_object_name": "STARLINK-35872",
        "meta_object_id": "2025-268Z",
        "meta_epoch": "2025-12-02T20:00:03.000384",
        "meta_mean_motion": 15.74995073,
        "meta_eccentricity": 0.000203,
        "meta_inclination": 42.9981,
        "meta_ra_of_asc_node": 179.7958,
        "meta_arg_of_pericenter": 265.7087,
        "meta_mean_anomaly": 358.2743,
        "meta_ephemeris_type": 0,
        "meta_classification_type": "U",
        "meta_norad_cat_id": 66580,
        "meta_element_set_no": 999,
        "meta_rev_at_epoch": 307,
        "meta_bstar": 0.00035925,
        "meta_mean_motion_dot": 0.00054962,
        "meta_mean_motion_ddot": 0,
        "tle_line1": "1 66580U 25268Z   25336.83336806  .00054962  00000+0  35925-3 0  9996",
        "tle_line2": "2 66580  42.9981 179.7958 0002030 265.7087 358.2743 15.74995073  3078"
      },
      "geometry": {
        "type": "Point",
        "coordinates": [
          14.843115366060218,
          -15.479867603775613
        ]
      }
    },
    {
      "type": "Feature",
      "properties": {
        "norad_id": 66581,
        "name": "STARLINK-35744",
        "group": "last-30-days",
        "lat": -16.727589630023406,
        "lon": 16.363555400065316,
        "alt_km": 345.6278238456034,
        "timestamp": "2025-12-03T04:52:28.421518+00:00",
        "meta_object_name": "STARLINK-35744",
        "meta_object_id": "2025-268AA",
        "meta_epoch": "2025-12-02T20:00:03.000384",
        "meta_mean_motion": 15.75027231,
        "meta_eccentricity": 0.0002013,
        "meta_inclination": 42.9982,
        "meta_ra_of_asc_node": 179.7904,
        "meta_arg_of_pericenter": 267.0072,
        "meta_mean_anomaly": 358.8862,
        "meta_ephemeris_type": 0,
        "meta_classification_type": "U",
        "meta_norad_cat_id": 66581,
        "meta_element_set_no": 999,
        "meta_rev_at_epoch": 302,
        "meta_bstar": -3.2248e-06,
        "meta_mean_motion_dot": -9.73e-06,
        "meta_mean_motion_ddot": 0,
        "tle_line1": "1 66581U 25268AA  25336.83336806 -.00000973  00000+0 -32248-5 0  9999",
        "tle_line2": "2 66581  42.9982 179.7904 0002013 267.0072 358.8862 15.75027231  3027"
      },
      "geometry": {
        "type": "Point",
        "coordinates": [
          16.363555400065316,
          -16.727589630023406
        ]
      }
    }
  ]
}